[{"OBJECT_NAME":"STARLINK-3536","OBJECT_ID":"2022-022AN","EPOCH":"2026-03-09T00:54:05.441472","MEAN_MOTION":15.08838759,"ECCENTRICITY":0.00012302,"INCLINATION":53.2188,"RA_OF_ASC_NODE":2.0467,"ARG_OF_PERICENTER":97.5151,"MEAN_ANOMALY":262.5981,"EPHEMERIS_TYPE":0,"CLASSIFICATION_TYPE":"U","NORAD_CAT_ID":51888,"ELEMENT_SET_NO":999,"REV_AT_EPOCH":22315,"BSTAR":2.0456228e-5,"MEAN_MOTION_DOT":3.8e-7,"MEAN_MOTION_DDOT":0},{"OBJECT_NAME":"JILIN-01 KUANFU 02B 3","OBJECT_ID":"2024-169C","EPOCH":"2026-03-09T22:06:48.862368","MEAN_MOTION":15.0924242,"ECCENTRICITY":0.00160506,"INCLINATION":97.5557,"RA_OF_ASC_NODE":159.7436,"ARG_OF_PERICENTER":304.8201,"MEAN_ANOMALY":55.1517,"EPHEMERIS_TYPE":0,"CLASSIFICATION_TYPE":"U","NORAD_CAT_ID":61191,"ELEMENT_SET_NO":999,"REV_AT_EPOCH":8085,"BSTAR":0.00039569069,"MEAN_MOTION_DOT":6.253e-5,"MEAN_MOTION_DDOT":0}]
